ONEWEB-0340             
1 49206U 21083W   25330.61974758  .00000000  00000+0 -32341-4 0  9992
2 49206  87.9200  15.6852 0001774  98.9716 261.1617 13.18684377203271
ONEWEB-0341             
1 49207U 21083X   25330.62634288  .00000101  00000+0  22444-3 0  9998
2 49207  87.9198  15.6956 0001516  80.9501 279.1803 13.18684414203290
ONEWEB-0342             
1 49208U 21083Y   25330.47416723 -.00000282  00000+0 -72513-3 0  9998
2 49208  87.9194 314.8616 0001951  84.9548 275.1808 13.20771270210022
ONEWEB-0343             
1 49209U 21083Z   25330.63457799 -.00000025  00000+0 -95091-4 0  9997
2 49209  87.9200  15.6860 0001895  80.0266 280.1080 13.18683778203346
ONEWEB-0344             
1 49210U 21083AA  25330.63980624 -.00000089  00000+0 -27805-3 0  9994
2 49210  87.8983   0.5262 0001502  83.7968 276.3332 13.13468752204300
ONEWEB-0345             
1 49211U 21083AB  25330.63134800  .00000135  00000+0  33416-3 0  9997
2 49211  87.8991   0.4863 0001590  82.9041 277.2269 13.13469402204319
ONEWEB-0346             
1 49212U 21083AC  25330.63129339 -.00000025  00000+0 -96485-4 0  9995
2 49212  87.9194  15.7029 0001542 117.5266 242.6023 13.18685381203280
ONEWEB-0348             
1 49213U 21083AD  25330.46469527 -.00000174  00000+0 -45978-3 0  9998
2 49213  87.9181 314.8708 0001202  83.1416 276.9854 13.20773006210052
